<?xml version="1.0" encoding="UTF-8"?>
<kml xmlns="http://www.opengis.net/kml/2.2">
  <Document>
    <name>Area de Entrega - Dom Leonardo</name>
    <Style id="areaEntrega">
      <LineStyle><color>ff3344ff</color><width>2</width></LineStyle>
      <PolyStyle><color>553344ff</color></PolyStyle>
    </Style>
    <Placemark>
      <name>Dom Leonardo - Entrega (8km)</name>
      <description>Area circular de 8km a partir da loja (Santa Felicidade, Curitiba).</description>
      <styleUrl>#areaEntrega</styleUrl>
      <Polygon>
        <tessellate>1</tessellate>
        <outerBoundaryIs>
          <LinearRing>
            <coordinates>
              -49.337223,-25.320933,0
              -49.328908,-25.321327,0
              -49.320684,-25.322504,0
              -49.312641,-25.324451,0
              -49.304867,-25.327146,0
              -49.297448,-25.330561,0
              -49.290465,-25.334658,0
              -49.283994,-25.339392,0
              -49.278106,-25.344711,0
              -49.272866,-25.350557,0
              -49.268331,-25.356866,0
              -49.264550,-25.363568,0
              -49.261566,-25.370591,0
              -49.259411,-25.377857,0
              -49.258109,-25.385286,0
              -49.257673,-25.392798,0
              -49.258109,-25.400310,0
              -49.259411,-25.407740,0
              -49.261566,-25.415006,0
              -49.264550,-25.422028,0
              -49.268331,-25.428731,0
              -49.272866,-25.435039,0
              -49.278106,-25.440885,0
              -49.283994,-25.446204,0
              -49.290465,-25.450938,0
              -49.297448,-25.455035,0
              -49.304867,-25.458450,0
              -49.312641,-25.461146,0
              -49.320684,-25.463093,0
              -49.328908,-25.464269,0
              -49.337223,-25.464663,0
              -49.345539,-25.464269,0
              -49.353763,-25.463093,0
              -49.361806,-25.461146,0
              -49.369579,-25.458450,0
              -49.376998,-25.455035,0
              -49.383982,-25.450938,0
              -49.390453,-25.446204,0
              -49.396341,-25.440885,0
              -49.401581,-25.435039,0
              -49.406116,-25.428731,0
              -49.409896,-25.422028,0
              -49.412880,-25.415006,0
              -49.415035,-25.407740,0
              -49.416338,-25.400310,0
              -49.416774,-25.392798,0
              -49.416338,-25.385286,0
              -49.415035,-25.377857,0
              -49.412880,-25.370591,0
              -49.409896,-25.363568,0
              -49.406116,-25.356866,0
              -49.401581,-25.350557,0
              -49.396341,-25.344711,0
              -49.390453,-25.339392,0
              -49.383982,-25.334658,0
              -49.376998,-25.330561,0
              -49.369579,-25.327146,0
              -49.361806,-25.324451,0
              -49.353763,-25.322504,0
              -49.345539,-25.321327,0
              -49.337223,-25.320933,0
            </coordinates>
          </LinearRing>
        </outerBoundaryIs>
      </Polygon>
    </Placemark>
  </Document>
</kml>
